[
	{
		"OBJECT_NAME": "STARLINK-5815",
		"OBJECT_ID": "2023-028BA",
		"EPOCH": "2024-11-03T13:53:07.415520",
		"MEAN_MOTION": 14.98401092,
		"ECCENTRICITY": 0.0003381,
		"INCLINATION": 70.0007,
		"RA_OF_ASC_NODE": 2.6758,
		"ARG_OF_PERICENTER": 265.5493,
		"MEAN_ANOMALY": 94.528,
		"EPHEMERIS_TYPE": 0,
		"CLASSIFICATION_TYPE": "U",
		"NORAD_CAT_ID": 55789,
		"ELEMENT_SET_NO": 999,
		"REV_AT_EPOCH": 9346,
		"BSTAR": -0.0007639,
		"MEAN_MOTION_DOT": -9.213e-5,
		"MEAN_MOTION_DDOT": 0
	},
	{
		"OBJECT_NAME": "STARLINK-5813",
		"OBJECT_ID": "2023-028BB",
		"EPOCH": "2024-11-03T13:59:23.828352",
		"MEAN_MOTION": 14.98347085,
		"ECCENTRICITY": 0.0002817,
		"INCLINATION": 70.001,
		"RA_OF_ASC_NODE": 2.6939,
		"ARG_OF_PERICENTER": 265.6089,
		"MEAN_ANOMALY": 94.4748,
		"EPHEMERIS_TYPE": 0,
		"CLASSIFICATION_TYPE": "U",
		"NORAD_CAT_ID": 55790,
		"ELEMENT_SET_NO": 999,
		"REV_AT_EPOCH": 9346,
		"BSTAR": 0.00017874,
		"MEAN_MOTION_DOT": 2.041e-5,
		"MEAN_MOTION_DDOT": 0
	},
	{
		"OBJECT_NAME": "STARLINK-5807",
		"OBJECT_ID": "2023-028BC",
		"EPOCH": "2024-11-03T14:17:11.175072",
		"MEAN_MOTION": 14.9834998,
		"ECCENTRICITY": 0.0002923,
		"INCLINATION": 70.0005,
		"RA_OF_ASC_NODE": 2.7337,
		"ARG_OF_PERICENTER": 275.5618,
		"MEAN_ANOMALY": 84.5208,
		"EPHEMERIS_TYPE": 0,
		"CLASSIFICATION_TYPE": "U",
		"NORAD_CAT_ID": 55791,
		"ELEMENT_SET_NO": 999,
		"REV_AT_EPOCH": 9346,
		"BSTAR": 0.00018342,
		"MEAN_MOTION_DOT": 2.097e-5,
		"MEAN_MOTION_DDOT": 0
	},
	{
		"OBJECT_NAME": "STARLINK-5856",
		"OBJECT_ID": "2023-037A",
		"EPOCH": "2024-11-03T14:30:54.509184",
		"MEAN_MOTION": 14.98340965,
		"ECCENTRICITY": 0.0003326,
		"INCLINATION": 69.9996,
		"RA_OF_ASC_NODE": 102.8086,
		"ARG_OF_PERICENTER": 273.4872,
		"MEAN_ANOMALY": 86.5907,
		"EPHEMERIS_TYPE": 0,
		"CLASSIFICATION_TYPE": "U",
		"NORAD_CAT_ID": 55914,
		"ELEMENT_SET_NO": 999,
		"REV_AT_EPOCH": 9061,
		"BSTAR": 0.00033797,
		"MEAN_MOTION_DOT": 3.943e-5,
		"MEAN_MOTION_DDOT": 0
	},
	{
		"OBJECT_NAME": "STARLINK-5859",
		"OBJECT_ID": "2023-037B",
		"EPOCH": "2024-11-03T14:06:51.419232",
		"MEAN_MOTION": 14.98336486,
		"ECCENTRICITY": 0.000312,
		"INCLINATION": 69.9987,
		"RA_OF_ASC_NODE": 102.7501,
		"ARG_OF_PERICENTER": 267.7149,
		"MEAN_ANOMALY": 92.3653,
		"EPHEMERIS_TYPE": 0,
		"CLASSIFICATION_TYPE": "U",
		"NORAD_CAT_ID": 55915,
		"ELEMENT_SET_NO": 999,
		"REV_AT_EPOCH": 9061,
		"BSTAR": 0.00021643,
		"MEAN_MOTION_DOT": 2.491e-5,
		"MEAN_MOTION_DDOT": 0
	},
	{
		"OBJECT_NAME": "STARLINK-5796",
		"OBJECT_ID": "2023-037C",
		"EPOCH": "2024-11-03T14:24:53.334720",
		"MEAN_MOTION": 14.9833634,
		"ECCENTRICITY": 0.0002952,
		"INCLINATION": 69.999,
		"RA_OF_ASC_NODE": 102.7938,
		"ARG_OF_PERICENTER": 270.6338,
		"MEAN_ANOMALY": 89.4483,
		"EPHEMERIS_TYPE": 0,
		"CLASSIFICATION_TYPE": "U",
		"NORAD_CAT_ID": 55916,
		"ELEMENT_SET_NO": 999,
		"REV_AT_EPOCH": 8992,
		"BSTAR": 0.00013181,
		"MEAN_MOTION_DOT": 1.48e-5,
		"MEAN_MOTION_DDOT": 0
	},
	{
		"OBJECT_NAME": "STARLINK-5855",
		"OBJECT_ID": "2023-037D",
		"EPOCH": "2024-11-03T14:00:01.000224",
		"MEAN_MOTION": 15.22104769,
		"ECCENTRICITY": 0.0001068,
		"INCLINATION": 69.9955,
		"RA_OF_ASC_NODE": 84.9661,
		"ARG_OF_PERICENTER": 101.4925,
		"MEAN_ANOMALY": 137.8485,
		"EPHEMERIS_TYPE": 0,
		"CLASSIFICATION_TYPE": "U",
		"NORAD_CAT_ID": 55917,
		"ELEMENT_SET_NO": 999,
		"REV_AT_EPOCH": 582,
		"BSTAR": 0.00019397,
		"MEAN_MOTION_DOT": 4.339e-5,
		"MEAN_MOTION_DDOT": 0
	},
	{
		"OBJECT_NAME": "STARLINK-5867",
		"OBJECT_ID": "2023-037E",
		"EPOCH": "2024-11-03T14:18:52.616448",
		"MEAN_MOTION": 14.98337386,
		"ECCENTRICITY": 0.0002729,
		"INCLINATION": 69.9992,
		"RA_OF_ASC_NODE": 102.7786,
		"ARG_OF_PERICENTER": 272.153,
		"MEAN_ANOMALY": 87.9317,
		"EPHEMERIS_TYPE": 0,
		"CLASSIFICATION_TYPE": "U",
		"NORAD_CAT_ID": 55918,
		"ELEMENT_SET_NO": 999,
		"REV_AT_EPOCH": 8992,
		"BSTAR": 6.5429e-5,
		"MEAN_MOTION_DOT": 6.88e-6,
		"MEAN_MOTION_DDOT": 0
	},
	{
		"OBJECT_NAME": "STARLINK-5871",
		"OBJECT_ID": "2023-037F",
		"EPOCH": "2024-11-03T14:07:06.186720",
		"MEAN_MOTION": 14.98331058,
		"ECCENTRICITY": 0.0003045,
		"INCLINATION": 69.9991,
		"RA_OF_ASC_NODE": 102.7488,
		"ARG_OF_PERICENTER": 268.8228,
		"MEAN_ANOMALY": 91.2582,
		"EPHEMERIS_TYPE": 0,
		"CLASSIFICATION_TYPE": "U",
		"NORAD_CAT_ID": 55919,
		"ELEMENT_SET_NO": 999,
		"REV_AT_EPOCH": 8992,
		"BSTAR": 2.9098e-5,
		"MEAN_MOTION_DOT": 2.54e-6,
		"MEAN_MOTION_DDOT": 0
	},
	{
		"OBJECT_NAME": "STARLINK-5862",
		"OBJECT_ID": "2023-037G",
		"EPOCH": "2024-11-03T14:12:32.654304",
		"MEAN_MOTION": 14.98340084,
		"ECCENTRICITY": 0.0003197,
		"INCLINATION": 69.9991,
		"RA_OF_ASC_NODE": 82.8856,
		"ARG_OF_PERICENTER": 269.0954,
		"MEAN_ANOMALY": 90.9839,
		"EPHEMERIS_TYPE": 0,
		"CLASSIFICATION_TYPE": "U",
		"NORAD_CAT_ID": 55920,
		"ELEMENT_SET_NO": 999,
		"REV_AT_EPOCH": 9041,
		"BSTAR": 9.5549e-5,
		"MEAN_MOTION_DOT": 1.048e-5,
		"MEAN_MOTION_DDOT": 0
	},
	{
		"OBJECT_NAME": "STARLINK-5861",
		"OBJECT_ID": "2023-037H",
		"EPOCH": "2024-11-03T13:42:48.761280",
		"MEAN_MOTION": 14.98331864,
		"ECCENTRICITY": 0.0003316,
		"INCLINATION": 69.9988,
		"RA_OF_ASC_NODE": 102.6885,
		"ARG_OF_PERICENTER": 270.5294,
		"MEAN_ANOMALY": 89.5485,
		"EPHEMERIS_TYPE": 0,
		"CLASSIFICATION_TYPE": "U",
		"NORAD_CAT_ID": 55921,
		"ELEMENT_SET_NO": 999,
		"REV_AT_EPOCH": 8992,
		"BSTAR": 0.0001912,
		"MEAN_MOTION_DOT": 2.189e-5,
		"MEAN_MOTION_DDOT": 0
	},
	{
		"OBJECT_NAME": "STARLINK-5863",
		"OBJECT_ID": "2023-037J",
		"EPOCH": "2024-11-03T13:48:50.129280",
		"MEAN_MOTION": 14.98330093,
		"ECCENTRICITY": 0.0002985,
		"INCLINATION": 69.9992,
		"RA_OF_ASC_NODE": 102.7046,
		"ARG_OF_PERICENTER": 269.9329,
		"MEAN_ANOMALY": 90.1488,
		"EPHEMERIS_TYPE": 0,
		"CLASSIFICATION_TYPE": "U",
		"NORAD_CAT_ID": 55922,
		"ELEMENT_SET_NO": 999,
		"REV_AT_EPOCH": 8992,
		"BSTAR": 4.3946e-7,
		"MEAN_MOTION_DOT": -8.8e-7,
		"MEAN_MOTION_DDOT": 0
	},
	{
		"OBJECT_NAME": "STARLINK-5854",
		"OBJECT_ID": "2023-037K",
		"EPOCH": "2024-11-03T13:54:50.164992",
		"MEAN_MOTION": 14.98339747,
		"ECCENTRICITY": 0.0003019,
		"INCLINATION": 70.0002,
		"RA_OF_ASC_NODE": 102.7192,
		"ARG_OF_PERICENTER": 268.3867,
		"MEAN_ANOMALY": 91.6946,
		"EPHEMERIS_TYPE": 0,
		"CLASSIFICATION_TYPE": "U",
		"NORAD_CAT_ID": 55923,
		"ELEMENT_SET_NO": 999,
		"REV_AT_EPOCH": 8992,
		"BSTAR": 0.00019075,
		"MEAN_MOTION_DOT": 2.184e-5,
		"MEAN_MOTION_DDOT": 0
	},
	{
		"OBJECT_NAME": "STARLINK-5849",
		"OBJECT_ID": "2023-037L",
		"EPOCH": "2024-11-03T14:06:31.843584",
		"MEAN_MOTION": 14.98337247,
		"ECCENTRICITY": 0.0003051,
		"INCLINATION": 69.9994,
		"RA_OF_ASC_NODE": 82.8687,
		"ARG_OF_PERICENTER": 270.0229,
		"MEAN_ANOMALY": 90.058,
		"EPHEMERIS_TYPE": 0,
		"CLASSIFICATION_TYPE": "U",
		"NORAD_CAT_ID": 55924,
		"ELEMENT_SET_NO": 999,
		"REV_AT_EPOCH": 9041,
		"BSTAR": 0.00014036,
		"MEAN_MOTION_DOT": 1.582e-5,
		"MEAN_MOTION_DDOT": 0
	},
	{
		"OBJECT_NAME": "STARLINK-5922",
		"OBJECT_ID": "2023-037M",
		"EPOCH": "2024-11-03T13:36:49.041792",
		"MEAN_MOTION": 14.98335365,
		"ECCENTRICITY": 0.0003321,
		"INCLINATION": 69.999,
		"RA_OF_ASC_NODE": 102.6742,
		"ARG_OF_PERICENTER": 269.9859,
		"MEAN_ANOMALY": 90.0919,
		"EPHEMERIS_TYPE": 0,
		"CLASSIFICATION_TYPE": "U",
		"NORAD_CAT_ID": 55925,
		"ELEMENT_SET_NO": 999,
		"REV_AT_EPOCH": 8992,
		"BSTAR": 0.00032289,
		"MEAN_MOTION_DOT": 3.762e-5,
		"MEAN_MOTION_DDOT": 0
	}
]
