STARLINK-5815           
1 55789U 23028BA  24308.57855805 -.00009213  00000+0 -76390-3 0  9993
2 55789  70.0007   2.6758 0003381 265.5493  94.5280 14.98401092 93465
STARLINK-5813           
1 55790U 23028BB  24308.58291468  .00002041  00000+0  17874-3 0  9997
2 55790  70.0010   2.6939 0002817 265.6089  94.4748 14.98347085 93466
STARLINK-5807           
1 55791U 23028BC  24308.59526823  .00002097  00000+0  18342-3 0  9997
2 55791  70.0005   2.7337 0002923 275.5618  84.5208 14.98349980 93467
STARLINK-5856           
1 55914U 23037A   24308.60479756  .00003943  00000+0  33797-3 0  9990
2 55914  69.9996 102.8086 0003326 273.4872  86.5907 14.98340965 90616
STARLINK-5859           
1 55915U 23037B   24308.58809513  .00002491  00000+0  21643-3 0  9990
2 55915  69.9987 102.7501 0003120 267.7149  92.3653 14.98336486 90619
STARLINK-5796           
1 55916U 23037C   24308.60061730  .00001480  00000+0  13181-3 0  9990
2 55916  69.9990 102.7938 0002952 270.6338  89.4483 14.98336340 89922
STARLINK-5855           
1 55917U 23037D   24308.58334491  .00004339  00000+0  19397-3 0  9996
2 55917  69.9955  84.9661 0001068 101.4925 137.8485 15.22104769  5821
STARLINK-5867           
1 55918U 23037E   24308.59644232  .00000688  00000+0  65429-4 0  9996
2 55918  69.9992 102.7786 0002729 272.1530  87.9317 14.98337386 89920
STARLINK-5871           
1 55919U 23037F   24308.58826605  .00000254  00000+0  29098-4 0  9993
2 55919  69.9991 102.7488 0003045 268.8228  91.2582 14.98331058 89929
STARLINK-5862           
1 55920U 23037G   24308.59204461  .00001048  00000+0  95549-4 0  9992
2 55920  69.9991  82.8856 0003197 269.0954  90.9839 14.98340084 90411
STARLINK-5861           
1 55921U 23037H   24308.57139770  .00002189  00000+0  19120-3 0  9998
2 55921  69.9988 102.6885 0003316 270.5294  89.5485 14.98331864 89929
STARLINK-5863           
1 55922U 23037J   24308.57558020 -.00000088  00000+0  43946-6 0  9995
2 55922  69.9992 102.7046 0002985 269.9329  90.1488 14.98330093 89921
STARLINK-5854           
1 55923U 23037K   24308.57974728  .00002184  00000+0  19075-3 0  9994
2 55923  70.0002 102.7192 0003019 268.3867  91.6946 14.98339747 89928
STARLINK-5849           
1 55924U 23037L   24308.58786856  .00001582  00000+0  14036-3 0  9992
2 55924  69.9994  82.8687 0003051 270.0229  90.0580 14.98337247 90417
STARLINK-5922           
1 55925U 23037M   24308.56723428  .00003762  00000+0  32289-3 0  9999
2 55925  69.9990 102.6742 0003321 269.9859  90.0919 14.98335365 89922
